[{"OBJECT_NAME":"STARLINK-30978","OBJECT_ID":"2023-186T","EPOCH":"2026-03-09T22:00:01.999584","MEAN_MOTION":15.27576199,"ECCENTRICITY":0.00020459,"INCLINATION":43.0004,"RA_OF_ASC_NODE":62.2852,"ARG_OF_PERICENTER":214.3303,"MEAN_ANOMALY":79.869,"EPHEMERIS_TYPE":0,"CLASSIFICATION_TYPE":"U","NORAD_CAT_ID":58490,"ELEMENT_SET_NO":999,"REV_AT_EPOCH":578,"BSTAR":0.0017039495,"MEAN_MOTION_DOT":0.00046921,"MEAN_MOTION_DDOT":0},{"OBJECT_NAME":"COSMOS 2251 DEB","OBJECT_ID":"1993-036BPR","EPOCH":"2026-02-24T07:57:21.236256","MEAN_MOTION":15.23776337,"ECCENTRICITY":0.00166824,"INCLINATION":73.9787,"RA_OF_ASC_NODE":76.2838,"ARG_OF_PERICENTER":284.1156,"MEAN_ANOMALY":75.8189,"EPHEMERIS_TYPE":0,"CLASSIFICATION_TYPE":"U","NORAD_CAT_ID":37966,"ELEMENT_SET_NO":999,"REV_AT_EPOCH":86459,"BSTAR":0.0031189174,"MEAN_MOTION_DOT":0.00076101,"MEAN_MOTION_DDOT":0}]
